STARLINK-32244          
1 60411U 24141P   26068.72861301  .00000166  00000+0  17725-4 0  9992
2 60411  53.1603 242.6167 0001275  83.1651 276.9495 15.30184555 89588
HAWK-11A                
1 62382U 24247F   26068.51231358  .00009457  00000+0  34106-3 0  9991
2 62382  44.9941 114.3328 0005466 327.3713  32.6832 15.28849427 67741
